{"fetched_at":"2026-07-19T07:05:22.787Z","source":"https://celestrak.org/NORAD/elements/gp.php?NAME=NUSAT&FORMAT=JSON","constellation":"satellogic","records":[{"OBJECT_NAME":"NUSAT-26 (M SOMERVILLE)","OBJECT_ID":"2022-033AD","EPOCH":"2026-07-18T19:53:05.677152","CLASSIFICATION_TYPE":"U","MEAN_MOTION":15.43327131,"ECCENTRICITY":0.0007165,"INCLINATION":97.2332,"RA_OF_ASC_NODE":278.686,"ARG_OF_PERICENTER":127.2465,"MEAN_ANOMALY":232.9438,"EPHEMERIS_TYPE":0,"NORAD_CAT_ID":52184,"ELEMENT_SET_NO":999,"REV_AT_EPOCH":10958,"BSTAR":0.00021587,"MEAN_MOTION_DOT":0.00009542,"MEAN_MOTION_DDOT":0},{"OBJECT_NAME":"NUSAT-33 (ALBANIA-2)","OBJECT_ID":"2023-001AQ","EPOCH":"2026-07-18T20:08:03.418080","CLASSIFICATION_TYPE":"U","MEAN_MOTION":15.28300499,"ECCENTRICITY":0.0004639,"INCLINATION":97.3048,"RA_OF_ASC_NODE":260.1395,"ARG_OF_PERICENTER":297.4179,"MEAN_ANOMALY":62.6589,"EPHEMERIS_TYPE":0,"NORAD_CAT_ID":55047,"ELEMENT_SET_NO":999,"REV_AT_EPOCH":19714,"BSTAR":0.00016962,"MEAN_MOTION_DOT":0.00004603,"MEAN_MOTION_DDOT":0},{"OBJECT_NAME":"NUSAT-35 (WILLIAMINA)","OBJECT_ID":"2023-001AR","EPOCH":"2026-07-18T20:02:51.094176","CLASSIFICATION_TYPE":"U","MEAN_MOTION":15.35878632,"ECCENTRICITY":0.0010025,"INCLINATION":97.1829,"RA_OF_ASC_NODE":251.797,"ARG_OF_PERICENTER":356.952,"MEAN_ANOMALY":3.1662,"EPHEMERIS_TYPE":0,"NORAD_CAT_ID":55048,"ELEMENT_SET_NO":999,"REV_AT_EPOCH":19726,"BSTAR":0.00020761,"MEAN_MOTION_DOT":0.00007181,"MEAN_MOTION_DDOT":0},{"OBJECT_NAME":"NUSAT-39 (TIKVAH ALPER)","OBJECT_ID":"2023-054Z","EPOCH":"2026-07-18T20:39:06.988320","CLASSIFICATION_TYPE":"U","MEAN_MOTION":15.48136095,"ECCENTRICITY":0.0001487,"INCLINATION":97.3081,"RA_OF_ASC_NODE":109.9361,"ARG_OF_PERICENTER":294.3894,"MEAN_ANOMALY":65.7201,"EPHEMERIS_TYPE":0,"NORAD_CAT_ID":56201,"ELEMENT_SET_NO":999,"REV_AT_EPOCH":18335,"BSTAR":0.00030045,"MEAN_MOTION_DOT":0.00015694,"MEAN_MOTION_DDOT":0},{"OBJECT_NAME":"NUSAT-38 (MARIA AGNESI)","OBJECT_ID":"2023-054AA","EPOCH":"2026-07-18T20:20:47.753952","CLASSIFICATION_TYPE":"U","MEAN_MOTION":15.51341776,"ECCENTRICITY":0.0008278,"INCLINATION":97.3023,"RA_OF_ASC_NODE":110.6733,"ARG_OF_PERICENTER":311.2608,"MEAN_ANOMALY":48.7931,"EPHEMERIS_TYPE":0,"NORAD_CAT_ID":56202,"ELEMENT_SET_NO":999,"REV_AT_EPOCH":18341,"BSTAR":0.00032423,"MEAN_MOTION_DOT":0.00019001,"MEAN_MOTION_DDOT":0},{"OBJECT_NAME":"NUSAT-37 (JOAN CLARKE)","OBJECT_ID":"2023-054AB","EPOCH":"2026-07-18T18:11:14.993088","CLASSIFICATION_TYPE":"U","MEAN_MOTION":15.59831105,"ECCENTRICITY":0.0008197,"INCLINATION":97.2591,"RA_OF_ASC_NODE":107.486,"ARG_OF_PERICENTER":134.3595,"MEAN_ANOMALY":225.8334,"EPHEMERIS_TYPE":0,"NORAD_CAT_ID":56203,"ELEMENT_SET_NO":999,"REV_AT_EPOCH":18356,"BSTAR":0.00036767,"MEAN_MOTION_DOT":0.00029503,"MEAN_MOTION_DDOT":0},{"OBJECT_NAME":"NUSAT-40 (C SHOEMAKER)","OBJECT_ID":"2023-084M","EPOCH":"2026-07-18T09:14:12.655680","CLASSIFICATION_TYPE":"U","MEAN_MOTION":15.83084786,"ECCENTRICITY":0.00038941,"INCLINATION":97.4869,"RA_OF_ASC_NODE":348.537,"ARG_OF_PERICENTER":180.6053,"MEAN_ANOMALY":179.5211,"EPHEMERIS_TYPE":0,"NORAD_CAT_ID":56943,"ELEMENT_SET_NO":999,"REV_AT_EPOCH":17373,"BSTAR":0.00047258003,"MEAN_MOTION_DOT":0.00101591,"MEAN_MOTION_DDOT":0},{"OBJECT_NAME":"NUSAT-41 (C PAYNE-G)","OBJECT_ID":"2023-084N","EPOCH":"2026-07-18T20:16:22.243296","CLASSIFICATION_TYPE":"U","MEAN_MOTION":15.29963732,"ECCENTRICITY":0.0007295,"INCLINATION":97.5558,"RA_OF_ASC_NODE":337.0742,"ARG_OF_PERICENTER":195.6285,"MEAN_ANOMALY":164.4731,"EPHEMERIS_TYPE":0,"NORAD_CAT_ID":56944,"ELEMENT_SET_NO":999,"REV_AT_EPOCH":17262,"BSTAR":0.00020943,"MEAN_MOTION_DOT":0.00006,"MEAN_MOTION_DDOT":0},{"OBJECT_NAME":"NUSAT-42 (M WONENBURGER)","OBJECT_ID":"2023-084AL","EPOCH":"2026-07-18T19:34:26.364288","CLASSIFICATION_TYPE":"U","MEAN_MOTION":15.46604422,"ECCENTRICITY":0.0006841,"INCLINATION":97.5759,"RA_OF_ASC_NODE":345.2959,"ARG_OF_PERICENTER":135.1193,"MEAN_ANOMALY":225.061,"EPHEMERIS_TYPE":0,"NORAD_CAT_ID":56966,"ELEMENT_SET_NO":999,"REV_AT_EPOCH":17296,"BSTAR":0.00026501,"MEAN_MOTION_DOT":0.00013118,"MEAN_MOTION_DDOT":0},{"OBJECT_NAME":"NUSAT-44 (MARIA MITCHELL)","OBJECT_ID":"2024-043AA","EPOCH":"2026-07-18T20:47:39.505344","CLASSIFICATION_TYPE":"U","MEAN_MOTION":15.29892667,"ECCENTRICITY":0.0006634,"INCLINATION":97.5491,"RA_OF_ASC_NODE":340.6151,"ARG_OF_PERICENTER":121.2935,"MEAN_ANOMALY":238.8955,"EPHEMERIS_TYPE":0,"NORAD_CAT_ID":59122,"ELEMENT_SET_NO":999,"REV_AT_EPOCH":13211,"BSTAR":0.00020104,"MEAN_MOTION_DOT":0.00005743,"MEAN_MOTION_DDOT":0},{"OBJECT_NAME":"NUSAT-50 (NANCY ROMAN)","OBJECT_ID":"2024-149AB","EPOCH":"2026-07-18T18:07:01.407360","CLASSIFICATION_TYPE":"U","MEAN_MOTION":15.30354486,"ECCENTRICITY":0.0004858,"INCLINATION":97.3776,"RA_OF_ASC_NODE":280.8002,"ARG_OF_PERICENTER":93.2428,"MEAN_ANOMALY":266.9369,"EPHEMERIS_TYPE":0,"NORAD_CAT_ID":60493,"ELEMENT_SET_NO":999,"REV_AT_EPOCH":10695,"BSTAR":0.00016216,"MEAN_MOTION_DOT":0.00004685,"MEAN_MOTION_DDOT":0},{"OBJECT_NAME":"NUSAT-48 (HENRIETTA LEAVITT)","OBJECT_ID":"2024-149AG","EPOCH":"2026-07-18T19:25:31.066176","CLASSIFICATION_TYPE":"U","MEAN_MOTION":15.30309847,"ECCENTRICITY":0.0005086,"INCLINATION":97.3908,"RA_OF_ASC_NODE":281.1528,"ARG_OF_PERICENTER":148.236,"MEAN_ANOMALY":211.9188,"EPHEMERIS_TYPE":0,"NORAD_CAT_ID":60498,"ELEMENT_SET_NO":999,"REV_AT_EPOCH":10697,"BSTAR":0.00016262,"MEAN_MOTION_DOT":0.00004692,"MEAN_MOTION_DDOT":0},{"OBJECT_NAME":"NUSAT-49 (KLARA DAN VON NEUMANN)","OBJECT_ID":"2024-149AJ","EPOCH":"2026-07-18T11:02:21.864192","CLASSIFICATION_TYPE":"U","MEAN_MOTION":15.29810125,"ECCENTRICITY":0.0001767,"INCLINATION":97.3791,"RA_OF_ASC_NODE":280.5374,"ARG_OF_PERICENTER":158.5945,"MEAN_ANOMALY":201.537,"EPHEMERIS_TYPE":0,"NORAD_CAT_ID":60500,"ELEMENT_SET_NO":999,"REV_AT_EPOCH":10691,"BSTAR":0.000058073,"MEAN_MOTION_DOT":0.00001601,"MEAN_MOTION_DDOT":0},{"OBJECT_NAME":"NUSAT-45 (UZMASAT-1)","OBJECT_ID":"2025-009AH","EPOCH":"2026-07-18T04:29:07.054944","CLASSIFICATION_TYPE":"U","MEAN_MOTION":15.29840571,"ECCENTRICITY":0.00020147,"INCLINATION":97.3586,"RA_OF_ASC_NODE":280.1071,"ARG_OF_PERICENTER":168.2318,"MEAN_ANOMALY":191.897,"EPHEMERIS_TYPE":0,"NORAD_CAT_ID":62640,"ELEMENT_SET_NO":999,"REV_AT_EPOCH":8366,"BSTAR":0.00015896916,"MEAN_MOTION_DOT":0.00004518,"MEAN_MOTION_DDOT":0},{"OBJECT_NAME":"NUSAT-52","OBJECT_ID":"2025-276AC","EPOCH":"2026-07-18T17:58:14.037312","CLASSIFICATION_TYPE":"U","MEAN_MOTION":15.20056139,"ECCENTRICITY":0.0001664,"INCLINATION":97.4191,"RA_OF_ASC_NODE":272.7766,"ARG_OF_PERICENTER":254.2044,"MEAN_ANOMALY":105.9008,"EPHEMERIS_TYPE":0,"NORAD_CAT_ID":66692,"ELEMENT_SET_NO":999,"REV_AT_EPOCH":3521,"BSTAR":0.00012319,"MEAN_MOTION_DOT":0.00002589,"MEAN_MOTION_DDOT":0},{"OBJECT_NAME":"NUSAT-51 (YVONNE BRILL)","OBJECT_ID":"2025-276CC","EPOCH":"2026-07-18T17:58:08.423904","CLASSIFICATION_TYPE":"U","MEAN_MOTION":15.2058853,"ECCENTRICITY":0.0002012,"INCLINATION":97.4197,"RA_OF_ASC_NODE":272.9224,"ARG_OF_PERICENTER":216.7984,"MEAN_ANOMALY":143.3113,"EPHEMERIS_TYPE":0,"NORAD_CAT_ID":66740,"ELEMENT_SET_NO":999,"REV_AT_EPOCH":3522,"BSTAR":0.00014188,"MEAN_MOTION_DOT":0.0000304,"MEAN_MOTION_DDOT":0}]}
