NUSAT-26 (M SOMERVILLE) 
1 52184U 22033AD  26199.82853793  .00009542  00000+0  21587-3 0  9997
2 52184  97.2332 278.6860 0007165 127.2465 232.9438 15.43327131109585
NUSAT-33 (ALBANIA-2)    
1 55047U 23001AQ  26199.83892845  .00004603  00000+0  16962-3 0  9990
2 55047  97.3048 260.1395 0004639 297.4179  62.6589 15.28300499197140
NUSAT-35 (WILLIAMINA)   
1 55048U 23001AR  26199.83531359  .00007181  00000+0  20761-3 0  9997
2 55048  97.1829 251.7970 0010025 356.9520   3.1662 15.35878632197260
NUSAT-39 (TIKVAH ALPER) 
1 56201U 23054Z   26199.86049755  .00015694  00000+0  30045-3 0  9998
2 56201  97.3081 109.9361 0001487 294.3894  65.7201 15.48136095183355
NUSAT-38 (MARIA AGNESI) 
1 56202U 23054AA  26199.84777493  .00019001  00000+0  32423-3 0  9992
2 56202  97.3023 110.6733 0008278 311.2608  48.7931 15.51341776183417
NUSAT-37 (JOAN CLARKE)  
1 56203U 23054AB  26199.75781242  .00029503  00000+0  36767-3 0  9993
2 56203  97.2591 107.4860 0008197 134.3595 225.8334 15.59831105183560
NUSAT-40 (C SHOEMAKER)  
1 56943U 23084M   26199.38486870  .00101591  00000+0  47258-3 0  9990
2 56943  97.4869 348.5370 0003894 180.6053 179.5211 15.83084786173736
NUSAT-41 (C PAYNE-G)    
1 56944U 23084N   26199.84470189  .00006000  00000+0  20943-3 0  9999
2 56944  97.5558 337.0742 0007295 195.6285 164.4731 15.29963732172625
NUSAT-42 (M WONENBURGER)
1 56966U 23084AL  26199.81558292  .00013118  00000+0  26501-3 0  9996
2 56966  97.5759 345.2959 0006841 135.1193 225.0610 15.46604422172960
NUSAT-44 (MARIA MITCHE*)
1 59122U 24043AA  26199.86642946  .00005743  00000+0  20104-3 0  9992
2 59122  97.5491 340.6151 0006634 121.2935 238.8955 15.29892667132111
NUSAT-50 (NANCY ROMAN)  
1 60493U 24149AB  26199.75487740  .00004685  00000+0  16216-3 0  9992
2 60493  97.3776 280.8002 0004858  93.2428 266.9369 15.30354486106957
NUSAT-48 (HENRIETTA LE*)
1 60498U 24149AG  26199.80938734  .00004692  00000+0  16262-3 0  9996
2 60498  97.3908 281.1528 0005086 148.2360 211.9188 15.30309847106978
NUSAT-49 (KLARA DAN VO*)
1 60500U 24149AJ  26199.45997528  .00001601  00000+0  58073-4 0  9991
2 60500  97.3791 280.5374 0001767 158.5945 201.5370 15.29810125106915
NUSAT-45 (UZMASAT-1)    
1 62640U 25009AH  26199.18688721  .00004518  00000+0  15897-3 0  9992
2 62640  97.3586 280.1071 0002014 168.2318 191.8970 15.29840571 83663
NUSAT-52                
1 66692U 25276AC  26199.74877358  .00002589  00000+0  12319-3 0  9999
2 66692  97.4191 272.7766 0001664 254.2044 105.9008 15.20056139 35213
NUSAT-51 (YVONNE BRILL) 
1 66740U 25276CC  26199.74870861  .00003040  00000+0  14188-3 0  9994
2 66740  97.4197 272.9224 0002012 216.7984 143.3113 15.20588530 35227
